{
    "links": {
        "self": "http://www.neowsapp.com/rest/v1/neo/54076355?api_key=iIulBulltgU6a56xZRHN4H3l9WmuAYTsLGpBGhQ2"
    },
    "id": "54076355",
    "neo_reference_id": "54076355",
    "name": "(2020 UX4)",
    "designation": "2020 UX4",
    "nasa_jpl_url": "http://ssd.jpl.nasa.gov/sbdb.cgi?sstr=54076355",
    "absolute_magnitude_h": 25.77,
    "estimated_diameter": {
        "kilometers": {
            "estimated_diameter_min": 0.0186446818,
            "estimated_diameter_max": 0.041690776
        },
        "meters": {
            "estimated_diameter_min": 18.644681832,
            "estimated_diameter_max": 41.6907759952
        },
        "miles": {
            "estimated_diameter_min": 0.0115852646,
            "estimated_diameter_max": 0.0259054392
        },
        "feet": {
            "estimated_diameter_min": 61.1702179417,
            "estimated_diameter_max": 136.7807655161
        }
    },
    "is_potentially_hazardous_asteroid": false,
    "close_approach_data": [
        {
            "close_approach_date": "2020-10-20",
            "close_approach_date_full": "2020-Oct-20 23:06",
            "epoch_date_close_approach": 1603235160000,
            "relative_velocity": {
                "kilometers_per_second": "8.1141690443",
                "kilometers_per_hour": "29211.0085593225",
                "miles_per_hour": "18150.5847350968"
            },
            "miss_distance": {
                "astronomical": "0.0180352709",
                "lunar": "7.0157203801",
                "kilometers": "2698038.111512983",
                "miles": "1676483.1429378454"
            },
            "orbiting_body": "Earth"
        },
        {
            "close_approach_date": "2025-07-16",
            "close_approach_date_full": "2025-Jul-16 12:33",
            "epoch_date_close_approach": 1752669180000,
            "relative_velocity": {
                "kilometers_per_second": "20.5221882908",
                "kilometers_per_hour": "73879.8778468894",
                "miles_per_hour": "45906.0829876963"
            },
            "miss_distance": {
                "astronomical": "0.4238952857",
                "lunar": "164.8952661373",
                "kilometers": "63413831.843761459",
                "miles": "39403527.9418437742"
            },
            "orbiting_body": "Earth"
        },
        {
            "close_approach_date": "2027-10-23",
            "close_approach_date_full": "2027-Oct-23 18:15",
            "epoch_date_close_approach": 1824315300000,
            "relative_velocity": {
                "kilometers_per_second": "9.0019931297",
                "kilometers_per_hour": "32407.1752668914",
                "miles_per_hour": "20136.5584318081"
            },
            "miss_distance": {
                "astronomical": "0.0518618948",
                "lunar": "20.1742770772",
                "kilometers": "7758428.996244076",
                "miles": "4820864.2318212088"
            },
            "orbiting_body": "Mars"
        }
    ],
    "orbital_data": {
        "orbit_id": "20",
        "orbit_determination_date": "2020-11-22 05:19:49",
        "first_observation_date": "2020-10-22",
        "last_observation_date": "2020-11-22",
        "data_arc_in_days": 31,
        "observations_used": 112,
        "orbit_uncertainty": "7",
        "minimum_orbit_intersection": ".000965408",
        "jupiter_tisserand_invariant": "3.921",
        "epoch_osculation": "2459000.5",
        "eccentricity": ".4625339536958211",
        "semi_major_axis": "1.809539555813808",
        "inclination": ".5428187079496311",
        "ascending_node_longitude": "158.2465676135655",
        "orbital_period": "889.0998734871627",
        "perihelion_distance": ".9725660706942676",
        "perihelion_argument": "202.1737324878439",
        "aphelion_distance": "2.646513040933349",
        "perihelion_time": "2459121.568515632850",
        "mean_anomaly": "310.9788867060778",
        "mean_motion": ".4049038929541563",
        "equinox": "J2000",
        "orbit_class": {
            "orbit_class_type": "APO",
            "orbit_class_description": "Near-Earth asteroid orbits which cross the Earth’s orbit similar to that of 1862 Apollo",
            "orbit_class_range": "a (semi-major axis) > 1.0 AU; q (perihelion) < 1.017 AU"
        }
    },
    "is_sentry_object": false
}